STARLINK-11683 [DTC]    
1 64239U 25119G   26030.25650443  .00201691  00000+0  15362-2 0  9999
2 64239  43.0006  80.4654 0001218 245.4074 114.6667 15.70859407 39205
STARLINK-11684 [DTC]    
1 64240U 25119H   26030.28836086  .00199781  00000+0  15191-2 0  9999
2 64240  43.0016  80.7212 0001442 254.5604 105.5105 15.70906549 39206
STARLINK-11689 [DTC]    
1 64241U 25119J   26030.27774498  .00295435  00000+0  22155-2 0  9998
2 64241  43.0007  80.6367 0001411 258.1758 101.8951 15.70942369 39201
STARLINK-11690 [DTC]    
1 64242U 25119K   26030.14527434  .00271619  00000+0  20484-2 0  9992
2 64242  42.9991  81.3629 0001396 316.3608  43.7149 15.70880404 39185
STARLINK-11694 [DTC]    
1 64243U 25119L   26030.18243721  .00263426  00000+0  19839-2 0  9990
2 64243  43.0004  81.6588 0001737 258.4041 101.6632 15.70937738 39180
STARLINK-11710 [DTC]    
1 64244U 25119M   26030.29367350  .00196733  00000+0  14950-2 0  9993
2 64244  43.0001  80.7637 0001391 269.9909  90.0799 15.70930015 39208
STARLINK-11704 [DTC]    
1 64245U 25119N   26030.26181643  .00131466  00000+0  10088-2 0  9990
2 64245  43.0007  80.5068 0001420 273.3847  86.6858 15.70913936 39204
STARLINK-34203          
1 64246U 25119P   26030.06765600  .00018279  00000+0  67233-3 0  9991
2 64246  42.9983 165.0763 0001030 284.4435  75.6302 15.27570469 38270
STARLINK-33865          
1 64247U 25119Q   26029.72530321  .00015590  00000+0  57445-3 0  9990
2 64247  42.9975 166.8002 0001609 260.4048  99.6622 15.27602724 38184
STARLINK-34234          
1 64248U 25119R   26030.07793326  .00028965  00000+0  10580-2 0  9995
2 64248  42.9999 165.1517 0001181 276.9435  83.1283 15.27577189 38267
STARLINK-34256          
1 64249U 25119S   26030.05994628  .00032959  00000+0  12018-2 0  9998
2 64249  43.0026 165.0120 0000894  39.5895 320.5022 15.27583655 38267
STARLINK-34229          
1 64250U 25119T   26029.76898290  .00039410  00000+0  14328-2 0  9999
2 64250  43.0016 167.1405 0001903 262.8003  97.2632 15.27608766 38212
STARLINK-34224          
1 64251U 25119U   26029.79454112  .00042473  00000+0  15446-2 0  9999
2 64251  42.9896 166.4647 0000486 298.2115  61.8687 15.27568213 38229
STARLINK-34215          
1 64252U 25119V   26030.07407718  .00028946  00000+0  10573-2 0  9998
2 64252  43.0036 165.1228 0000946 306.1426  53.9338 15.27579454 38262
STARLINK-33893          
1 64253U 25119W   26029.76256174  .00030475  00000+0  11114-2 0  9993
2 64253  43.0022 167.0889 0001734 280.0877  79.9779 15.27610687 38214
STARLINK-34183          
1 64254U 25119X   26029.77284434  .00038547  00000+0  14018-2 0  9999
2 64254  43.0019 167.1646 0001851 278.4793  81.5849 15.27607312 38219
