[{"OBJECT_NAME":"STARLINK-11683 [DTC]","OBJECT_ID":"2025-119G","EPOCH":"2026-01-30T06:09:21.982752","MEAN_MOTION":15.70859407,"ECCENTRICITY":0.00012182,"INCLINATION":43.0006,"RA_OF_ASC_NODE":80.4654,"ARG_OF_PERICENTER":245.4074,"MEAN_ANOMALY":114.6667,"EPHEMERIS_TYPE":0,"CLASSIFICATION_TYPE":"U","NORAD_CAT_ID":64239,"ELEMENT_SET_NO":999,"REV_AT_EPOCH":3920,"BSTAR":0.0015362302,"MEAN_MOTION_DOT":0.00201691,"MEAN_MOTION_DDOT":0},{"OBJECT_NAME":"STARLINK-11684 [DTC]","OBJECT_ID":"2025-119H","EPOCH":"2026-01-30T06:55:14.378304","MEAN_MOTION":15.70906549,"ECCENTRICITY":0.00014427,"INCLINATION":43.0016,"RA_OF_ASC_NODE":80.7212,"ARG_OF_PERICENTER":254.5604,"MEAN_ANOMALY":105.5105,"EPHEMERIS_TYPE":0,"CLASSIFICATION_TYPE":"U","NORAD_CAT_ID":64240,"ELEMENT_SET_NO":999,"REV_AT_EPOCH":3920,"BSTAR":0.0015190619,"MEAN_MOTION_DOT":0.00199781,"MEAN_MOTION_DDOT":0},{"OBJECT_NAME":"STARLINK-11689 [DTC]","OBJECT_ID":"2025-119J","EPOCH":"2026-01-30T06:39:57.166272","MEAN_MOTION":15.70942369,"ECCENTRICITY":0.00014116,"INCLINATION":43.0007,"RA_OF_ASC_NODE":80.6367,"ARG_OF_PERICENTER":258.1758,"MEAN_ANOMALY":101.8951,"EPHEMERIS_TYPE":0,"CLASSIFICATION_TYPE":"U","NORAD_CAT_ID":64241,"ELEMENT_SET_NO":999,"REV_AT_EPOCH":3920,"BSTAR":0.0022154834,"MEAN_MOTION_DOT":0.00295435,"MEAN_MOTION_DDOT":0},{"OBJECT_NAME":"STARLINK-11690 [DTC]","OBJECT_ID":"2025-119K","EPOCH":"2026-01-30T03:29:11.702976","MEAN_MOTION":15.70880404,"ECCENTRICITY":0.00013965,"INCLINATION":42.9991,"RA_OF_ASC_NODE":81.3629,"ARG_OF_PERICENTER":316.3608,"MEAN_ANOMALY":43.7149,"EPHEMERIS_TYPE":0,"CLASSIFICATION_TYPE":"U","NORAD_CAT_ID":64242,"ELEMENT_SET_NO":999,"REV_AT_EPOCH":3918,"BSTAR":0.0020483802,"MEAN_MOTION_DOT":0.00271619,"MEAN_MOTION_DDOT":0},{"OBJECT_NAME":"STARLINK-11694 [DTC]","OBJECT_ID":"2025-119L","EPOCH":"2026-01-30T04:22:42.574944","MEAN_MOTION":15.70937738,"ECCENTRICITY":0.00017373,"INCLINATION":43.0004,"RA_OF_ASC_NODE":81.6588,"ARG_OF_PERICENTER":258.4041,"MEAN_ANOMALY":101.6632,"EPHEMERIS_TYPE":0,"CLASSIFICATION_TYPE":"U","NORAD_CAT_ID":64243,"ELEMENT_SET_NO":999,"REV_AT_EPOCH":3918,"BSTAR":0.0019839037,"MEAN_MOTION_DOT":0.00263426,"MEAN_MOTION_DDOT":0},{"OBJECT_NAME":"STARLINK-11710 [DTC]","OBJECT_ID":"2025-119M","EPOCH":"2026-01-30T07:02:53.390400","MEAN_MOTION":15.70930015,"ECCENTRICITY":0.00013912,"INCLINATION":43.0001,"RA_OF_ASC_NODE":80.7637,"ARG_OF_PERICENTER":269.9909,"MEAN_ANOMALY":90.0799,"EPHEMERIS_TYPE":0,"CLASSIFICATION_TYPE":"U","NORAD_CAT_ID":64244,"ELEMENT_SET_NO":999,"REV_AT_EPOCH":3920,"BSTAR":0.0014950155,"MEAN_MOTION_DOT":0.00196733,"MEAN_MOTION_DDOT":0},{"OBJECT_NAME":"STARLINK-11704 [DTC]","OBJECT_ID":"2025-119N","EPOCH":"2026-01-30T06:17:00.939552","MEAN_MOTION":15.70913936,"ECCENTRICITY":0.00014203,"INCLINATION":43.0007,"RA_OF_ASC_NODE":80.5068,"ARG_OF_PERICENTER":273.3847,"MEAN_ANOMALY":86.6858,"EPHEMERIS_TYPE":0,"CLASSIFICATION_TYPE":"U","NORAD_CAT_ID":64245,"ELEMENT_SET_NO":999,"REV_AT_EPOCH":3920,"BSTAR":0.0010087806,"MEAN_MOTION_DOT":0.00131466,"MEAN_MOTION_DDOT":0},{"OBJECT_NAME":"STARLINK-34203","OBJECT_ID":"2025-119P","EPOCH":"2026-01-30T01:37:25.478400","MEAN_MOTION":15.27570469,"ECCENTRICITY":0.00010307,"INCLINATION":42.9983,"RA_OF_ASC_NODE":165.0763,"ARG_OF_PERICENTER":284.4435,"MEAN_ANOMALY":75.6302,"EPHEMERIS_TYPE":0,"CLASSIFICATION_TYPE":"U","NORAD_CAT_ID":64246,"ELEMENT_SET_NO":999,"REV_AT_EPOCH":3827,"BSTAR":0.00067232615,"MEAN_MOTION_DOT":0.00018279,"MEAN_MOTION_DDOT":0},{"OBJECT_NAME":"STARLINK-33865","OBJECT_ID":"2025-119Q","EPOCH":"2026-01-29T17:24:26.197344","MEAN_MOTION":15.27602724,"ECCENTRICITY":0.00016098,"INCLINATION":42.9975,"RA_OF_ASC_NODE":166.8002,"ARG_OF_PERICENTER":260.4048,"MEAN_ANOMALY":99.6622,"EPHEMERIS_TYPE":0,"CLASSIFICATION_TYPE":"U","NORAD_CAT_ID":64247,"ELEMENT_SET_NO":999,"REV_AT_EPOCH":3818,"BSTAR":0.0005744466,"MEAN_MOTION_DOT":0.0001559,"MEAN_MOTION_DDOT":0},{"OBJECT_NAME":"STARLINK-34234","OBJECT_ID":"2025-119R","EPOCH":"2026-01-30T01:52:13.433664","MEAN_MOTION":15.27577189,"ECCENTRICITY":0.00011813,"INCLINATION":42.9999,"RA_OF_ASC_NODE":165.1517,"ARG_OF_PERICENTER":276.9435,"MEAN_ANOMALY":83.1283,"EPHEMERIS_TYPE":0,"CLASSIFICATION_TYPE":"U","NORAD_CAT_ID":64248,"ELEMENT_SET_NO":999,"REV_AT_EPOCH":3826,"BSTAR":0.0010580475,"MEAN_MOTION_DOT":0.00028965,"MEAN_MOTION_DDOT":0},{"OBJECT_NAME":"STARLINK-34256","OBJECT_ID":"2025-119S","EPOCH":"2026-01-30T01:26:19.358592","MEAN_MOTION":15.27583655,"ECCENTRICITY":8.941e-5,"INCLINATION":43.0026,"RA_OF_ASC_NODE":165.012,"ARG_OF_PERICENTER":39.5895,"MEAN_ANOMALY":320.5022,"EPHEMERIS_TYPE":0,"CLASSIFICATION_TYPE":"U","NORAD_CAT_ID":64249,"ELEMENT_SET_NO":999,"REV_AT_EPOCH":3826,"BSTAR":0.0012017523,"MEAN_MOTION_DOT":0.00032959,"MEAN_MOTION_DDOT":0},{"OBJECT_NAME":"STARLINK-34229","OBJECT_ID":"2025-119T","EPOCH":"2026-01-29T18:27:20.122560","MEAN_MOTION":15.27608766,"ECCENTRICITY":0.00019038,"INCLINATION":43.0016,"RA_OF_ASC_NODE":167.1405,"ARG_OF_PERICENTER":262.8003,"MEAN_ANOMALY":97.2632,"EPHEMERIS_TYPE":0,"CLASSIFICATION_TYPE":"U","NORAD_CAT_ID":64250,"ELEMENT_SET_NO":999,"REV_AT_EPOCH":3821,"BSTAR":0.0014327555,"MEAN_MOTION_DOT":0.0003941,"MEAN_MOTION_DDOT":0},{"OBJECT_NAME":"STARLINK-34224","OBJECT_ID":"2025-119U","EPOCH":"2026-01-29T19:04:08.352768","MEAN_MOTION":15.27568213,"ECCENTRICITY":4.869e-5,"INCLINATION":42.9896,"RA_OF_ASC_NODE":166.4647,"ARG_OF_PERICENTER":298.2115,"MEAN_ANOMALY":61.8687,"EPHEMERIS_TYPE":0,"CLASSIFICATION_TYPE":"U","NORAD_CAT_ID":64251,"ELEMENT_SET_NO":999,"REV_AT_EPOCH":3822,"BSTAR":0.0015446316,"MEAN_MOTION_DOT":0.00042473,"MEAN_MOTION_DDOT":0},{"OBJECT_NAME":"STARLINK-34215","OBJECT_ID":"2025-119V","EPOCH":"2026-01-30T01:46:40.268352","MEAN_MOTION":15.27579454,"ECCENTRICITY":9.467e-5,"INCLINATION":43.0036,"RA_OF_ASC_NODE":165.1228,"ARG_OF_PERICENTER":306.1426,"MEAN_ANOMALY":53.9338,"EPHEMERIS_TYPE":0,"CLASSIFICATION_TYPE":"U","NORAD_CAT_ID":64252,"ELEMENT_SET_NO":999,"REV_AT_EPOCH":3826,"BSTAR":0.0010572914,"MEAN_MOTION_DOT":0.00028946,"MEAN_MOTION_DDOT":0},{"OBJECT_NAME":"STARLINK-33893","OBJECT_ID":"2025-119W","EPOCH":"2026-01-29T18:18:05.334336","MEAN_MOTION":15.27610687,"ECCENTRICITY":0.00017346,"INCLINATION":43.0022,"RA_OF_ASC_NODE":167.0889,"ARG_OF_PERICENTER":280.0877,"MEAN_ANOMALY":79.9779,"EPHEMERIS_TYPE":0,"CLASSIFICATION_TYPE":"U","NORAD_CAT_ID":64253,"ELEMENT_SET_NO":999,"REV_AT_EPOCH":3821,"BSTAR":0.0011113587,"MEAN_MOTION_DOT":0.00030475,"MEAN_MOTION_DDOT":0},{"OBJECT_NAME":"STARLINK-34183","OBJECT_ID":"2025-119X","EPOCH":"2026-01-29T18:32:53.750976","MEAN_MOTION":15.27607312,"ECCENTRICITY":0.00018511,"INCLINATION":43.0019,"RA_OF_ASC_NODE":167.1646,"ARG_OF_PERICENTER":278.4793,"MEAN_ANOMALY":81.5849,"EPHEMERIS_TYPE":0,"CLASSIFICATION_TYPE":"U","NORAD_CAT_ID":64254,"ELEMENT_SET_NO":999,"REV_AT_EPOCH":3821,"BSTAR":0.001401806,"MEAN_MOTION_DOT":0.00038547,"MEAN_MOTION_DDOT":0}]
